{
  "type": "FeatureCollection",
  "features": [
    {
      "type": "Feature",
      "properties": {
        "norad_id": 43207,
        "name": "BEIDOU-3 M4 (C22)",
        "group": "beidou",
        "lat": 8.94367698339478,
        "lon": 74.82987160178055,
        "alt_km": 21515.529950178458,
        "timestamp": "2025-12-26T20:30:46.173441+00:00",
        "meta_object_name": "BEIDOU-3 M4 (C22)",
        "meta_object_id": "2018-018A",
        "meta_epoch": "2025-12-25T18:21:17.493120",
        "meta_mean_motion": 1.86231089,
        "meta_eccentricity": 0.00042291,
        "meta_inclination": 56.4961,
        "meta_ra_of_asc_node": 68.874,
        "meta_arg_of_pericenter": 1.268,
        "meta_mean_anomaly": 358.7861,
        "meta_ephemeris_type": 0,
        "meta_classification_type": "U",
        "meta_norad_cat_id": 43207,
        "meta_element_set_no": 999,
        "meta_rev_at_epoch": 5351,
        "meta_bstar": 0,
        "meta_mean_motion_dot": -2.7e-07,
        "meta_mean_motion_ddot": 0,
        "tle_line1": "1 43207U 18018A   25359.76478580 -.00000027  00000+0  00000+0 0  9991",
        "tle_line2": "2 43207  56.4961  68.8740 0004229   1.2680 358.7861  1.86231089 53516"
      },
      "geometry": {
        "type": "Point",
        "coordinates": [
          74.82987160178055,
          8.94367698339478
        ]
      }
    },
    {
      "type": "Feature",
      "properties": {
        "norad_id": 43208,
        "name": "BEIDOU-3 M3 (C21)",
        "group": "beidou",
        "lat": -27.710844031298823,
        "lon": 48.52211328231633,
        "alt_km": 21512.17063907667,
        "timestamp": "2025-12-26T20:30:46.173451+00:00",
        "meta_object_name": "BEIDOU-3 M3 (C21)",
        "meta_object_id": "2018-018B",
        "meta_epoch": "2025-12-26T08:50:15.779616",
        "meta_mean_motion": 1.86231383,
        "meta_eccentricity": 0.00071474,
        "meta_inclination": 56.4961,
        "meta_ra_of_asc_node": 68.858,
        "meta_arg_of_pericenter": 313.9083,
        "meta_mean_anomaly": 46.0843,
        "meta_ephemeris_type": 0,
        "meta_classification_type": "U",
        "meta_norad_cat_id": 43208,
        "meta_element_set_no": 999,
        "meta_rev_at_epoch": 5352,
        "meta_bstar": 0,
        "meta_mean_motion_dot": -3e-07,
        "meta_mean_motion_ddot": 0,
        "tle_line1": "1 43208U 18018B   25360.36823819 -.00000030  00000+0  00000+0 0  9993",
        "tle_line2": "2 43208  56.4961  68.8580 0007147 313.9083  46.0843  1.86231383 53526"
      },
      "geometry": {
        "type": "Point",
        "coordinates": [
          48.52211328231633,
          -27.710844031298823
        ]
      }
    },
    {
      "type": "Feature",
      "properties": {
        "norad_id": 43245,
        "name": "BEIDOU-3 M9 (C29)",
        "group": "beidou",
        "lat": -0.9196799370157639,
        "lon": 126.62009037494683,
        "alt_km": 21530.151454116967,
        "timestamp": "2025-12-26T20:30:46.173461+00:00",
        "meta_object_name": "BEIDOU-3 M9 (C29)",
        "meta_object_id": "2018-029A",
        "meta_epoch": "2025-12-26T01:08:32.545824",
        "meta_mean_motion": 1.86228224,
        "meta_eccentricity": 0.00015465,
        "meta_inclination": 54.3537,
        "meta_ra_of_asc_node": 306.0047,
        "meta_arg_of_pericenter": 290.5162,
        "meta_mean_anomaly": 69.4771,
        "meta_ephemeris_type": 0,
        "meta_classification_type": "U",
        "meta_norad_cat_id": 43245,
        "meta_element_set_no": 999,
        "meta_rev_at_epoch": 5267,
        "meta_bstar": 0,
        "meta_mean_motion_dot": -5.5e-07,
        "meta_mean_motion_ddot": 0,
        "tle_line1": "1 43245U 18029A   25360.04759891 -.00000055  00000+0  00000+0 0  9996",
        "tle_line2": "2 43245  54.3537 306.0047 0001546 290.5162  69.4771  1.86228224 52677"
      },
      "geometry": {
        "type": "Point",
        "coordinates": [
          126.62009037494683,
          -0.9196799370157639
        ]
      }
    },
    {
      "type": "Feature",
      "properties": {
        "norad_id": 43246,
        "name": "BEIDOU-3 M10 (C30)",
        "group": "beidou",
        "lat": -34.781036844117885,
        "lon": 155.8515814552855,
        "alt_km": 21541.713951880924,
        "timestamp": "2025-12-26T20:30:46.173470+00:00",
        "meta_object_name": "BEIDOU-3 M10 (C30)",
        "meta_object_id": "2018-029B",
        "meta_epoch": "2025-12-25T23:35:13.323840",
        "meta_mean_motion": 1.86229188,
        "meta_eccentricity": 0.00043665,
        "meta_inclination": 54.3511,
        "meta_ra_of_asc_node": 306.0337,
        "meta_arg_of_pericenter": 3.7555,
        "meta_mean_anomaly": 356.2576,
        "meta_ephemeris_type": 0,
        "meta_classification_type": "U",
        "meta_norad_cat_id": 43246,
        "meta_element_set_no": 999,
        "meta_rev_at_epoch": 5265,
        "meta_bstar": 0,
        "meta_mean_motion_dot": -5.5e-07,
        "meta_mean_motion_ddot": 0,
        "tle_line1": "1 43246U 18029B   25359.98279310 -.00000055  00000+0  00000+0 0  9991",
        "tle_line2": "2 43246  54.3511 306.0337 0004366   3.7555 356.2576  1.86229188 52653"
      },
      "geometry": {
        "type": "Point",
        "coordinates": [
          155.8515814552855,
          -34.781036844117885
        ]
      }
    },
    {
      "type": "Feature",
      "properties": {
        "norad_id": 43539,
        "name": "BEIDOU-2 IGSO-7 (C16)",
        "group": "beidou",
        "lat": -8.423773919050053,
        "lon": 158.61421898865123,
        "alt_km": 35953.07997961163,
        "timestamp": "2025-12-26T20:30:46.173481+00:00",
        "meta_object_name": "BEIDOU-2 IGSO-7 (C16)",
        "meta_object_id": "2018-057A",
        "meta_epoch": "2025-12-23T21:03:51.666912",
        "meta_mean_motion": 1.00254881,
        "meta_eccentricity": 0.00930582,
        "meta_inclination": 55.1784,
        "meta_ra_of_asc_node": 164.5741,
        "meta_arg_of_pericenter": 235.1099,
        "meta_mean_anomaly": 119.1175,
        "meta_ephemeris_type": 0,
        "meta_classification_type": "U",
        "meta_norad_cat_id": 43539,
        "meta_element_set_no": 999,
        "meta_rev_at_epoch": 2736,
        "meta_bstar": 0,
        "meta_mean_motion_dot": -6.1e-07,
        "meta_mean_motion_ddot": 0,
        "tle_line1": "1 43539U 18057A   25357.87768133 -.00000061  00000+0  00000+0 0  9996",
        "tle_line2": "2 43539  55.1784 164.5741 0093058 235.1099 119.1175  1.00254881 27360"
      },
      "geometry": {
        "type": "Point",
        "coordinates": [
          158.61421898865123,
          -8.423773919050053
        ]
      }
    },
    {
      "type": "Feature",
      "properties": {
        "norad_id": 43581,
        "name": "BEIDOU-3 M5 (C23)",
        "group": "beidou",
        "lat": 51.12220769065862,
        "lon": -107.80063599262226,
        "alt_km": 21520.65122143527,
        "timestamp": "2025-12-26T20:30:46.173491+00:00",
        "meta_object_name": "BEIDOU-3 M5 (C23)",
        "meta_object_id": "2018-062A",
        "meta_epoch": "2025-12-24T01:25:43.982112",
        "meta_mean_motion": 1.86228769,
        "meta_eccentricity": 0.0001922,
        "meta_inclination": 54.09,
        "meta_ra_of_asc_node": 188.2582,
        "meta_arg_of_pericenter": 1.0455,
        "meta_mean_anomaly": 358.9913,
        "meta_ephemeris_type": 0,
        "meta_classification_type": "U",
        "meta_norad_cat_id": 43581,
        "meta_element_set_no": 999,
        "meta_rev_at_epoch": 5037,
        "meta_bstar": 0,
        "meta_mean_motion_dot": 1.01e-06,
        "meta_mean_motion_ddot": 0,
        "tle_line1": "1 43581U 18062A   25358.05953683  .00000101  00000+0  00000+0 0  9990",
        "tle_line2": "2 43581  54.0900 188.2582 0001922   1.0455 358.9913  1.86228769 50376"
      },
      "geometry": {
        "type": "Point",
        "coordinates": [
          -107.80063599262226,
          51.12220769065862
        ]
      }
    },
    {
      "type": "Feature",
      "properties": {
        "norad_id": 43582,
        "name": "BEIDOU-3 M6 (C24)",
        "group": "beidou",
        "lat": 11.250243043411082,
        "lon": -0.13587006827734582,
        "alt_km": 21536.795960684034,
        "timestamp": "2025-12-26T20:30:46.173501+00:00",
        "meta_object_name": "BEIDOU-3 M6 (C24)",
        "meta_object_id": "2018-062B",
        "meta_epoch": "2025-12-23T22:08:28.739040",
        "meta_mean_motion": 1.86229712,
        "meta_eccentricity": 0.00078704,
        "meta_inclination": 54.0895,
        "meta_ra_of_asc_node": 188.252,
        "meta_arg_of_pericenter": 49.2706,
        "meta_mean_anomaly": 310.8346,
        "meta_ephemeris_type": 0,
        "meta_classification_type": "U",
        "meta_norad_cat_id": 43582,
        "meta_element_set_no": 999,
        "meta_rev_at_epoch": 5037,
        "meta_bstar": 0,
        "meta_mean_motion_dot": 1e-06,
        "meta_mean_motion_ddot": 0,
        "tle_line1": "1 43582U 18062B   25357.92255485  .00000100  00000+0  00000+0 0  9990",
        "tle_line2": "2 43582  54.0895 188.2520 0007870  49.2706 310.8346  1.86229712 50379"
      },
      "geometry": {
        "type": "Point",
        "coordinates": [
          -0.13587006827734582,
          11.250243043411082
        ]
      }
    }
  ]
}